{
  "type": "FeatureCollection",
  "features": [
    {
      "type": "Feature",
      "properties": {
        "norad_id": 30290,
        "name": "FENGYUN 1C DEB",
        "group": "fengyun-1c-debris",
        "lat": -9.597552647759983,
        "lon": 105.48047182069394,
        "alt_km": 637.4075093881875,
        "timestamp": "2025-12-22T05:49:03.774776+00:00",
        "meta_object_name": "FENGYUN 1C DEB",
        "meta_object_id": "1999-025ZB",
        "meta_epoch": "2025-12-21T12:13:58.252800",
        "meta_mean_motion": 14.75392662,
        "meta_eccentricity": 0.00167619,
        "meta_inclination": 102.6223,
        "meta_ra_of_asc_node": 102.1712,
        "meta_arg_of_pericenter": 20.5286,
        "meta_mean_anomaly": 40.0924,
        "meta_ephemeris_type": 0,
        "meta_classification_type": "U",
        "meta_norad_cat_id": 30290,
        "meta_element_set_no": 999,
        "meta_rev_at_epoch": 98008,
        "meta_bstar": 0.0037240614,
        "meta_mean_motion_dot": 0.00025347,
        "meta_mean_motion_ddot": 0,
        "tle_line1": "1 30290U 99025ZB  25355.50970200  .00025347  00000+0  37241-2 0  9991",
        "tle_line2": "2 30290 102.6223 102.1712 0016761  20.5286  40.0924 14.75392662980089"
      },
      "geometry": {
        "type": "Point",
        "coordinates": [
          105.48047182069394,
          -9.597552647759983
        ]
      }
    },
    {
      "type": "Feature",
      "properties": {
        "norad_id": 30291,
        "name": "FENGYUN 1C DEB",
        "group": "fengyun-1c-debris",
        "lat": 61.50276310772493,
        "lon": 77.29260958697161,
        "alt_km": 750.0694497524,
        "timestamp": "2025-12-22T05:49:03.774786+00:00",
        "meta_object_name": "FENGYUN 1C DEB",
        "meta_object_id": "1999-025ZC",
        "meta_epoch": "2025-12-21T05:06:47.994336",
        "meta_mean_motion": 14.55424631,
        "meta_eccentricity": 0.01110522,
        "meta_inclination": 97.2323,
        "meta_ra_of_asc_node": 242.8734,
        "meta_arg_of_pericenter": 352.6694,
        "meta_mean_anomaly": 133.8416,
        "meta_ephemeris_type": 0,
        "meta_classification_type": "U",
        "meta_norad_cat_id": 30291,
        "meta_element_set_no": 999,
        "meta_rev_at_epoch": 97831,
        "meta_bstar": 0.0018030663,
        "meta_mean_motion_dot": 8.481e-05,
        "meta_mean_motion_ddot": 0,
        "tle_line1": "1 30291U 99025ZC  25355.21305549  .00008481  00000+0  18031-2 0  9994",
        "tle_line2": "2 30291  97.2323 242.8734 0111052 352.6694 133.8416 14.55424631978317"
      },
      "geometry": {
        "type": "Point",
        "coordinates": [
          77.29260958697161,
          61.50276310772493
        ]
      }
    },
    {
      "type": "Feature",
      "properties": {
        "norad_id": 30293,
        "name": "FENGYUN 1C DEB",
        "group": "fengyun-1c-debris",
        "lat": 22.466124214252265,
        "lon": 11.944899645998728,
        "alt_km": 710.0094074460421,
        "timestamp": "2025-12-22T05:49:03.774797+00:00",
        "meta_object_name": "FENGYUN 1C DEB",
        "meta_object_id": "1999-025ZE",
        "meta_epoch": "2025-12-20T02:18:58.818240",
        "meta_mean_motion": 14.489825,
        "meta_eccentricity": 0.00768109,
        "meta_inclination": 99.2542,
        "meta_ra_of_asc_node": 185.728,
        "meta_arg_of_pericenter": 92.9478,
        "meta_mean_anomaly": 35.992,
        "meta_ephemeris_type": 0,
        "meta_classification_type": "U",
        "meta_norad_cat_id": 30293,
        "meta_element_set_no": 999,
        "meta_rev_at_epoch": 99083,
        "meta_bstar": 0.00048065447,
        "meta_mean_motion_dot": 1.836e-05,
        "meta_mean_motion_ddot": 0,
        "tle_line1": "1 30293U 99025ZE  25354.09651410  .00001836  00000+0  48065-3 0  9990",
        "tle_line2": "2 30293  99.2542 185.7280 0076810  92.9478  35.9920 14.48982500990830"
      },
      "geometry": {
        "type": "Point",
        "coordinates": [
          11.944899645998728,
          22.466124214252265
        ]
      }
    },
    {
      "type": "Feature",
      "properties": {
        "norad_id": 30294,
        "name": "FENGYUN 1C DEB",
        "group": "fengyun-1c-debris",
        "lat": -39.729164303749734,
        "lon": -8.796292711601453,
        "alt_km": 670.3438577455772,
        "timestamp": "2025-12-22T05:49:03.774807+00:00",
        "meta_object_name": "FENGYUN 1C DEB",
        "meta_object_id": "1999-025ZF",
        "meta_epoch": "2025-12-20T18:01:59.812608",
        "meta_mean_motion": 14.34970641,
        "meta_eccentricity": 0.01971978,
        "meta_inclination": 98.3565,
        "meta_ra_of_asc_node": 342.743,
        "meta_arg_of_pericenter": 285.6747,
        "meta_mean_anomaly": 254.7862,
        "meta_ephemeris_type": 0,
        "meta_classification_type": "U",
        "meta_norad_cat_id": 30294,
        "meta_element_set_no": 999,
        "meta_rev_at_epoch": 98651,
        "meta_bstar": 0.00024445819,
        "meta_mean_motion_dot": 8.16e-06,
        "meta_mean_motion_ddot": 0,
        "tle_line1": "1 30294U 99025ZF  25354.75138672  .00000816  00000+0  24446-3 0  9998",
        "tle_line2": "2 30294  98.3565 342.7430 0197197 285.6747 254.7862 14.34970641986514"
      },
      "geometry": {
        "type": "Point",
        "coordinates": [
          -8.796292711601453,
          -39.729164303749734
        ]
      }
    },
    {
      "type": "Feature",
      "properties": {
        "norad_id": 30295,
        "name": "FENGYUN 1C DEB",
        "group": "fengyun-1c-debris",
        "lat": -75.54745543351244,
        "lon": 53.90519608327093,
        "alt_km": 861.7265608546113,
        "timestamp": "2025-12-22T05:49:03.774817+00:00",
        "meta_object_name": "FENGYUN 1C DEB",
        "meta_object_id": "1999-025ZG",
        "meta_epoch": "2025-12-21T18:38:47.696352",
        "meta_mean_motion": 14.25050898,
        "meta_eccentricity": 0.0094298,
        "meta_inclination": 98.5075,
        "meta_ra_of_asc_node": 17.9502,
        "meta_arg_of_pericenter": 56.3562,
        "meta_mean_anomaly": 359.6287,
        "meta_ephemeris_type": 0,
        "meta_classification_type": "U",
        "meta_norad_cat_id": 30295,
        "meta_element_set_no": 999,
        "meta_rev_at_epoch": 98305,
        "meta_bstar": 0.00013275,
        "meta_mean_motion_dot": 2.84e-06,
        "meta_mean_motion_ddot": 0,
        "tle_line1": "1 30295U 99025ZG  25355.77694093  .00000284  00000+0  13275-3 0  9993",
        "tle_line2": "2 30295  98.5075  17.9502 0094298  56.3562 359.6287 14.25050898983055"
      },
      "geometry": {
        "type": "Point",
        "coordinates": [
          53.90519608327093,
          -75.54745543351244
        ]
      }
    },
    {
      "type": "Feature",
      "properties": {
        "norad_id": 30297,
        "name": "FENGYUN 1C DEB",
        "group": "fengyun-1c-debris",
        "lat": 62.74857528093136,
        "lon": 145.33862895715342,
        "alt_km": 568.4740481257704,
        "timestamp": "2025-12-22T05:49:03.774828+00:00",
        "meta_object_name": "FENGYUN 1C DEB",
        "meta_object_id": "1999-025ZJ",
        "meta_epoch": "2025-12-20T19:47:22.953408",
        "meta_mean_motion": 14.21876156,
        "meta_eccentricity": 0.03797851,
        "meta_inclination": 98.8127,
        "meta_ra_of_asc_node": 306.3893,
        "meta_arg_of_pericenter": 92.3015,
        "meta_mean_anomaly": 328.0973,
        "meta_ephemeris_type": 0,
        "meta_classification_type": "U",
        "meta_norad_cat_id": 30297,
        "meta_element_set_no": 999,
        "meta_rev_at_epoch": 95267,
        "meta_bstar": 0.00085555178,
        "meta_mean_motion_dot": 3.907e-05,
        "meta_mean_motion_ddot": 0,
        "tle_line1": "1 30297U 99025ZJ  25354.82457122  .00003907  00000+0  85555-3 0  9995",
        "tle_line2": "2 30297  98.8127 306.3893 0379785  92.3015 328.0973 14.21876156952671"
      },
      "geometry": {
        "type": "Point",
        "coordinates": [
          145.33862895715342,
          62.74857528093136
        ]
      }
    },
    {
      "type": "Feature",
      "properties": {
        "norad_id": 30298,
        "name": "FENGYUN 1C DEB",
        "group": "fengyun-1c-debris",
        "lat": 64.5812985471497,
        "lon": -73.17318489586569,
        "alt_km": 785.456625859134,
        "timestamp": "2025-12-22T05:49:03.774838+00:00",
        "meta_object_name": "FENGYUN 1C DEB",
        "meta_object_id": "1999-025ZK",
        "meta_epoch": "2025-12-21T19:43:11.885376",
        "meta_mean_motion": 14.20000256,
        "meta_eccentricity": 0.0047655,
        "meta_inclination": 99.0016,
        "meta_ra_of_asc_node": 86.9147,
        "meta_arg_of_pericenter": 102.6579,
        "meta_mean_anomaly": 21.4304,
        "meta_ephemeris_type": 0,
        "meta_classification_type": "U",
        "meta_norad_cat_id": 30298,
        "meta_element_set_no": 999,
        "meta_rev_at_epoch": 96963,
        "meta_bstar": 0.0013831,
        "meta_mean_motion_dot": 2.931e-05,
        "meta_mean_motion_ddot": 0,
        "tle_line1": "1 30298U 99025ZK  25355.82166534  .00002931  00000+0  13831-2 0  9994",
        "tle_line2": "2 30298  99.0016  86.9147 0047655 102.6579  21.4304 14.20000256969638"
      },
      "geometry": {
        "type": "Point",
        "coordinates": [
          -73.17318489586569,
          64.5812985471497
        ]
      }
    }
  ]
}